TIANMU-1 20             
1 58661U 23208B   26200.30880134  .00004305  00000+0  13665-3 0  9993
2 58661  97.4470 317.4562 0006743 196.6101 163.4921 15.33201518142340
TIANMU-1 21             
1 58662U 23208C   26200.31307046  .00005397  00000+0  15827-3 0  9995
2 58662  97.4532 320.2824 0007106 189.2684 170.8429 15.35597157142491
TIANMU-1 22             
1 58663U 23208D   26200.28890372  .00003934  00000+0  13208-3 0  9997
2 58663  97.4524 316.6754 0003139 201.0506 159.0606 15.31460544142246
TIANMU-1 15             
1 58700U 24004A   26200.27584370  .00002885  00000+0  11187-3 0  9999
2 58700  97.4674  26.4669 0006384 211.8368 148.2486 15.26937962140673
TIANMU-1 16             
1 58701U 24004B   26200.26503353  .00002730  00000+0  10569-3 0  9993
2 58701  97.4623  25.6704 0004692 226.9701 133.1146 15.27041005140678
TIANMU-1 17             
1 58702U 24004C   26200.31605014  .00002736  00000+0  10596-3 0  9993
2 58702  97.4650  26.2181 0004133 232.1092 127.9774 15.27038681140671
TIANMU-1 18             
1 58703U 24004D   26200.29236830  .00002821  00000+0  10942-3 0  9997
2 58703  97.4667  26.4575 0004122 206.9889 153.1136 15.26953557140670
INSAT-3DS               
1 58990U 24033A   26200.06631745 -.00000161  00000+0  00000+0 0  9992
2 58990   0.0803 264.1282 0001219 221.6492 277.0139  1.00270804 47381
METEOR-M2 4             
1 59051U 24039A   26200.25935704 -.00000017  00000+0  12162-4 0  9997
2 59051  98.7028 159.1575 0008247  78.7163 281.4941 14.22432337123828
GOES 19                 
1 60133U 24119A   26200.23516932 -.00000253  00000+0  00000+0 0  9990
2 60133   0.0187 142.3412 0000442  45.4748 118.6678  1.00271365  7289
MTG-S1                  
1 64723U 25143A   26200.26380823 -.00000012  00000+0  00000+0 0  9991
2 64723   0.5822 346.0874 0003292 258.8086 146.7605  1.00274809  3740
METOP-SGA1              
1 65159U 25172A   26195.76442858  .00000019  00000+0  29163-4 0  9994
2 65159  98.6631 254.9090 0007098 333.3306  26.7504 14.19819127 47700
FENGYUN 3H              
1 65815U 25219A   26200.10312784  .00000005  00000+0  22962-4 0  9999
2 65815  98.6769 140.2526 0001074  61.1893 298.9392 14.19925134 41918
