OBJECT_NAME,OBJECT_ID,EPOCH,MEAN_MOTION,ECCENTRICITY,INCLINATION,RA_OF_ASC_NODE,ARG_OF_PERICENTER,MEAN_ANOMALY,EPHEMERIS_TYPE,CLASSIFICATION_TYPE,NORAD_CAT_ID,ELEMENT_SET_NO,REV_AT_EPOCH,BSTAR,MEAN_MOTION_DOT,MEAN_MOTION_DDOT
TIANMU-1 20,2023-208B,2026-07-19T07:24:40.435776,15.33201518,.00067435,97.4470,317.4562,196.6101,163.4921,0,U,58661,999,14234,.136651E-3,.4305E-4,0
TIANMU-1 21,2023-208C,2026-07-19T07:30:49.287744,15.35597157,.00071067,97.4532,320.2824,189.2684,170.8429,0,U,58662,999,14249,.15826944E-3,.5397E-4,0
TIANMU-1 22,2023-208D,2026-07-19T06:56:01.281408,15.31460544,.00031397,97.4524,316.6754,201.0506,159.0606,0,U,58663,999,14224,.1320767E-3,.3934E-4,0
TIANMU-1 15,2024-004A,2026-07-19T06:37:12.895680,15.26937962,.00063849,97.4674,26.4669,211.8368,148.2486,0,U,58700,999,14067,.111873E-3,.2885E-4,0
TIANMU-1 16,2024-004B,2026-07-19T06:21:38.896992,15.27041005,.00046927,97.4623,25.6704,226.9701,133.1146,0,U,58701,999,14067,.10569367E-3,.273E-4,0
TIANMU-1 17,2024-004C,2026-07-19T07:35:06.732096,15.27038681,.00041331,97.4650,26.2181,232.1092,127.9774,0,U,58702,999,14067,.10595724E-3,.2736E-4,0
TIANMU-1 18,2024-004D,2026-07-19T07:01:00.621120,15.26953557,.00041222,97.4667,26.4575,206.9889,153.1136,0,U,58703,999,14067,.10942032E-3,.2821E-4,0
INSAT-3DS,2024-033A,2026-07-19T01:35:29.827680,1.00270804,.0001219,0.0803,264.1282,221.6492,277.0139,0,U,58990,999,4738,0,-.161E-5,0
METEOR-M2 4,2024-039A,2026-07-19T06:13:28.448256,14.22432337,.00082475,98.7028,159.1575,78.7163,281.4941,0,U,59051,999,12382,.12162259E-4,-.17E-6,0
GOES 19,2024-119A,2026-07-19T05:38:38.629248,1.00271365,.00004421,0.0187,142.3412,45.4748,118.6678,0,U,60133,999,728,0,-.253E-5,0
MTG-S1,2025-143A,2026-07-19T06:19:53.031072,1.00274809,.00032925,0.5822,346.0874,258.8086,146.7605,0,U,64723,999,374,0,-.12E-6,0
METOP-SGA1,2025-172A,2026-07-14T18:20:46.629312,14.19819127,.00070989,98.6631,254.9090,333.3306,26.7504,0,U,65159,999,4770,.2916334E-4,.19E-6,0
FENGYUN 3H,2025-219A,2026-07-19T02:28:30.245376,14.19925134,.00010743,98.6769,140.2526,61.1893,298.9392,0,U,65815,999,4191,.2296209E-4,.5E-7,0
